42959,IRIDIUM 119,2017,100.4,860.0,+,86.4,Active,1,LEO,USA,USA,Commercial/Government,Communications,Falcon,1 42959U 17061E   24327.37369143  .00000669  00000+0  23164-3 0  9997,2 42959  86.3959 264.1592 0002565  82.1669 277.9818 14.34222757372854,14.34222757,0.0002565,LEO
42960,IRIDIUM 107,2017,100.4,860.0,+,86.4,Active,1,LEO,USA,USA,Commercial/Government,Communications,Falcon,1 42960U 17061F   24327.32295416  .00000692  00000+0  24011-3 0  9993,2 42960  86.3958 264.1983 0002404  74.3079 285.8382 14.34220410372857,14.3422041,0.0002404,LEO
42961,IRIDIUM 132,2017,100.4,860.0,+,86.4,Active,1,LEO,USA,USA,Commercial/Government,Communications,Falcon,1 42961U 17061G   24327.25951975  .00000610  00000+0  21075-3 0  9992,2 42961  86.3958 264.2084 0002322  79.3959 280.7498 14.34221256372842,14.34221256,0.0002322,LEO
42962,IRIDIUM 136,2017,100.4,860.0,+,86.4,Active,1,LEO,USA,USA,Commercial/Government,Communications,Falcon,1 42962U 17061H   24327.36102917  .00000673  00000+0  23335-3 0  9999,2 42962  86.3958 264.1697 0002482  79.0442 281.1033 14.34218055372879,14.34218055,0.0002482,LEO
42963,IRIDIUM 139,2017,100.4,860.0,+,86.4,Active,1,LEO,USA,USA,Commercial/Government,Communications,Falcon,1 42963U 17061J   24327.78595672  .00000013  00000+0 -23287-5 0  9997,2 42963  86.3958 264.0445 0002396  79.4703 280.6763 14.34218451372940,14.34218451,0.0002396,LEO
42964,IRIDIUM 125,2017,100.4,860.0,+,86.4,Active,1,LEO,USA,USA,Commercial/Government,Communications,Falcon,1 42964U 17061K   24327.35465976  .00000658  00000+0  22792-3 0  9996,2 42964  86.3962 264.2757 0002842  79.8884 280.2632 14.34220203372897,14.34220203,0.0002842,LEO
43070,IRIDIUM 135,2017,100.4,860.0,+,86.4,Active,1,LEO,USA,USA,Commercial/Government,Communications,Falcon,1 43070U 17083A   24327.53809165 -.00000054  00000+0 -26429-4 0  9995,2 43070  86.4020 200.9050 0001637  88.5684 271.5700 14.34217465362211,14.34217465,0.0001637,LEO
43071,IRIDIUM 138,2017,100.4,860.0,+,86.4,Active,1,LEO,USA,USA,Commercial/Government,Communications,Falcon,1 43071U 17083B   24327.70300053  .00000466  00000+0  15922-3 0  9997,2 43071  86.4009 200.5332 0002704  91.3208 268.8298 14.34218293362220,14.34218293,0.0002704,LEO
